<?xml version="1.0" encoding="UTF-8"?>
<kml xmlns="http://www.opengis.net/kml/2.2" xmlns:gx="http://www.google.com/kml/ext/2.2" xmlns:kml="http://www.opengis.net/kml/2.2" xmlns:atom="http://www.w3.org/2005/Atom">
<Document>
	<name>confinamento.kml</name>
	<StyleMap id="m_ylw-pushpin">
		<Pair>
			<key>normal</key>
			<styleUrl>#s_ylw-pushpin</styleUrl>
		</Pair>
		<Pair>
			<key>highlight</key>
			<styleUrl>#s_ylw-pushpin_hl</styleUrl>
		</Pair>
	</StyleMap>
	<Style id="s_ylw-pushpin">
		<IconStyle>
			<scale>1.1</scale>
			<Icon>
				<href>http://maps.google.com/mapfiles/kml/pushpin/ylw-pushpin.png</href>
			</Icon>
			<hotSpot x="20" y="2" xunits="pixels" yunits="pixels"/>
		</IconStyle>
		<LineStyle>
			<width>2.4</width>
		</LineStyle>
		<PolyStyle>
			<color>00ffffff</color>
		</PolyStyle>
	</Style>
	<Style id="s_ylw-pushpin_hl">
		<IconStyle>
			<scale>1.3</scale>
			<Icon>
				<href>http://maps.google.com/mapfiles/kml/pushpin/ylw-pushpin.png</href>
			</Icon>
			<hotSpot x="20" y="2" xunits="pixels" yunits="pixels"/>
		</IconStyle>
		<LineStyle>
			<width>2.4</width>
		</LineStyle>
		<PolyStyle>
			<color>00ffffff</color>
		</PolyStyle>
	</Style>
	<Folder>
		<name>confinamento</name>
		<open>1</open>
		<Placemark>
			<name>CF1</name>
			<styleUrl>#m_ylw-pushpin</styleUrl>
			<Polygon>
				<tessellate>1</tessellate>
				<outerBoundaryIs>
					<LinearRing>
						<coordinates>
							-45.41452132465777,-15.24612661552005,0 -45.41416733911433,-15.24637338390437,0 -45.41381239666226,-15.24570261789037,0 -45.41416923573613,-15.24543128532195,0 -45.41452132465777,-15.24612661552005,0 
						</coordinates>
					</LinearRing>
				</outerBoundaryIs>
			</Polygon>
		</Placemark>
		<Placemark>
			<name>CF2</name>
			<styleUrl>#m_ylw-pushpin</styleUrl>
			<Polygon>
				<tessellate>1</tessellate>
				<outerBoundaryIs>
					<LinearRing>
						<coordinates>
							-45.41416329512523,-15.24638061293492,0 -45.41385336850499,-15.24658346248247,0 -45.41349129540664,-15.24593700112118,0 -45.41380565813016,-15.24570695355495,0 -45.41416329512523,-15.24638061293492,0 
						</coordinates>
					</LinearRing>
				</outerBoundaryIs>
			</Polygon>
		</Placemark>
		<Placemark>
			<name>CF3</name>
			<styleUrl>#m_ylw-pushpin</styleUrl>
			<Polygon>
				<tessellate>1</tessellate>
				<outerBoundaryIs>
					<LinearRing>
						<coordinates>
							-45.41384037194016,-15.24658868222315,0 -45.41346436113633,-15.24684404520685,0 -45.41310748385982,-15.24618782536451,0 -45.41348058585989,-15.24593837565304,0 -45.41384037194016,-15.24658868222315,0 
						</coordinates>
					</LinearRing>
				</outerBoundaryIs>
			</Polygon>
		</Placemark>
		<Placemark>
			<name>CF4</name>
			<styleUrl>#m_ylw-pushpin</styleUrl>
			<Polygon>
				<tessellate>1</tessellate>
				<outerBoundaryIs>
					<LinearRing>
						<coordinates>
							-45.41345823243424,-15.24684997118788,0 -45.41309308248997,-15.24711067494461,0 -45.4127277462233,-15.24644158553704,0 -45.41309762907564,-15.24618781665293,0 -45.41345823243424,-15.24684997118788,0 
						</coordinates>
					</LinearRing>
				</outerBoundaryIs>
			</Polygon>
		</Placemark>
		<Placemark>
			<name>CF5</name>
			<styleUrl>#m_ylw-pushpin</styleUrl>
			<Polygon>
				<tessellate>1</tessellate>
				<outerBoundaryIs>
					<LinearRing>
						<coordinates>
							-45.41308164111552,-15.24710591167749,0 -45.41272374353021,-15.24735196048336,0 -45.41232948535624,-15.24668757374025,0 -45.41272620549893,-15.24644641023487,0 -45.41308164111552,-15.24710591167749,0 
						</coordinates>
					</LinearRing>
				</outerBoundaryIs>
			</Polygon>
		</Placemark>
		<Placemark>
			<name>CF6</name>
			<styleUrl>#m_ylw-pushpin</styleUrl>
			<Polygon>
				<tessellate>1</tessellate>
				<outerBoundaryIs>
					<LinearRing>
						<coordinates>
							-45.41271266482054,-15.2473541217975,0 -45.41231905829946,-15.24761865472639,0 -45.41195797803037,-15.24694723201508,0 -45.41233099298125,-15.24668589943511,0 -45.41271266482054,-15.2473541217975,0 
						</coordinates>
					</LinearRing>
				</outerBoundaryIs>
			</Polygon>
		</Placemark>
		<Placemark>
			<name>CF7</name>
			<styleUrl>#m_ylw-pushpin</styleUrl>
			<Polygon>
				<tessellate>1</tessellate>
				<outerBoundaryIs>
					<LinearRing>
						<coordinates>
							-45.41231606456235,-15.24761282609442,0 -45.41193090898619,-15.2478798030299,0 -45.41156829544291,-15.24719752600885,0 -45.41195156423179,-15.24694384226195,0 -45.41231606456235,-15.24761282609442,0 
						</coordinates>
					</LinearRing>
				</outerBoundaryIs>
			</Polygon>
		</Placemark>
		<Placemark>
			<name>CF8</name>
			<styleUrl>#m_ylw-pushpin</styleUrl>
			<Polygon>
				<tessellate>1</tessellate>
				<outerBoundaryIs>
					<LinearRing>
						<coordinates>
							-45.4119297861748,-15.24787606942433,0 -45.41156137818155,-15.24812914298742,0 -45.41118282438588,-15.24744726296291,0 -45.41155948974037,-15.24720207540638,0 -45.4119297861748,-15.24787606942433,0 
						</coordinates>
					</LinearRing>
				</outerBoundaryIs>
			</Polygon>
		</Placemark>
		<Placemark>
			<name>CF9</name>
			<styleUrl>#m_ylw-pushpin</styleUrl>
			<Polygon>
				<tessellate>1</tessellate>
				<outerBoundaryIs>
					<LinearRing>
						<coordinates>
							-45.41155185210047,-15.24813847859889,0 -45.41119483541969,-15.24837034319768,0 -45.41080137285156,-15.24769273962436,0 -45.41117624362234,-15.24745888802781,0 -45.41155185210047,-15.24813847859889,0 
						</coordinates>
					</LinearRing>
				</outerBoundaryIs>
			</Polygon>
		</Placemark>
		<Placemark>
			<name>CF10</name>
			<styleUrl>#m_ylw-pushpin</styleUrl>
			<Polygon>
				<tessellate>1</tessellate>
				<outerBoundaryIs>
					<LinearRing>
						<coordinates>
							-45.41118849697929,-15.24836249690901,0 -45.4107960729079,-15.24864891175248,0 -45.41042186244572,-15.24794477907339,0 -45.41079271127849,-15.24770292570593,0 -45.41118849697929,-15.24836249690901,0 
						</coordinates>
					</LinearRing>
				</outerBoundaryIs>
			</Polygon>
		</Placemark>
		<Placemark>
			<name>CF11</name>
			<styleUrl>#m_ylw-pushpin</styleUrl>
			<Polygon>
				<tessellate>1</tessellate>
				<outerBoundaryIs>
					<LinearRing>
						<coordinates>
							-45.41078638653454,-15.24864900855227,0 -45.41039924657883,-15.24891488051124,0 -45.40997892471497,-15.24823177276347,0 -45.41041126608383,-15.24795796354424,0 -45.41078638653454,-15.24864900855227,0 
						</coordinates>
					</LinearRing>
				</outerBoundaryIs>
			</Polygon>
		</Placemark>
		<Placemark>
			<name>CF13</name>
			<styleUrl>#m_ylw-pushpin</styleUrl>
			<Polygon>
				<tessellate>1</tessellate>
				<outerBoundaryIs>
					<LinearRing>
						<coordinates>
							-45.4100236248122,-15.2491650521575,0 -45.40964878727515,-15.24942743217743,0 -45.40925686544919,-15.24874663182678,0 -45.40959425619854,-15.24851833869326,0 -45.4100236248122,-15.2491650521575,0 
						</coordinates>
					</LinearRing>
				</outerBoundaryIs>
			</Polygon>
		</Placemark>
		<Placemark>
			<name>CF12</name>
			<styleUrl>#m_ylw-pushpin</styleUrl>
			<Polygon>
				<tessellate>1</tessellate>
				<outerBoundaryIs>
					<LinearRing>
						<coordinates>
							-45.41039714090994,-15.2488998472284,0 -45.41002604147965,-15.24916790130712,0 -45.40960360491778,-15.24851604120762,0 -45.40997608776522,-15.24824238040605,0 -45.41039714090994,-15.2488998472284,0 
						</coordinates>
					</LinearRing>
				</outerBoundaryIs>
			</Polygon>
		</Placemark>
		<Placemark>
			<name>CF14</name>
			<styleUrl>#m_ylw-pushpin</styleUrl>
			<Polygon>
				<tessellate>1</tessellate>
				<outerBoundaryIs>
					<LinearRing>
						<coordinates>
							-45.40964958474414,-15.24942071993522,0 -45.40927159891218,-15.24968262095264,0 -45.4088660938116,-15.24899044582149,0 -45.4092503742494,-15.24874899424066,0 -45.40964958474414,-15.24942071993522,0 
						</coordinates>
					</LinearRing>
				</outerBoundaryIs>
			</Polygon>
		</Placemark>
		<Placemark>
			<name>CF15</name>
			<styleUrl>#m_ylw-pushpin</styleUrl>
			<Polygon>
				<tessellate>1</tessellate>
				<outerBoundaryIs>
					<LinearRing>
						<coordinates>
							-45.40927420948952,-15.2496836630557,0 -45.40890573416259,-15.24991597844394,0 -45.40846228089314,-15.24925913931617,0 -45.4088628729592,-15.24899801154396,0 -45.40927420948952,-15.2496836630557,0 
						</coordinates>
					</LinearRing>
				</outerBoundaryIs>
			</Polygon>
		</Placemark>
		<Placemark>
			<name>CF16</name>
			<styleUrl>#m_ylw-pushpin</styleUrl>
			<Polygon>
				<tessellate>1</tessellate>
				<outerBoundaryIs>
					<LinearRing>
						<coordinates>
							-45.40890119243798,-15.24992170400946,0 -45.40849853844478,-15.25019085592602,0 -45.40807910322238,-15.24950602836363,0 -45.40845643820602,-15.24926563522099,0 -45.40890119243798,-15.24992170400946,0 
						</coordinates>
					</LinearRing>
				</outerBoundaryIs>
			</Polygon>
		</Placemark>
		<Placemark>
			<name>CF17</name>
			<styleUrl>#m_ylw-pushpin</styleUrl>
			<Polygon>
				<tessellate>1</tessellate>
				<outerBoundaryIs>
					<LinearRing>
						<coordinates>
							-45.40849378808591,-15.25019483896435,0 -45.40811091494437,-15.25046306877647,0 -45.40771575626371,-15.24976938901625,0 -45.40807219563932,-15.24951503088491,0 -45.40849378808591,-15.25019483896435,0 
						</coordinates>
					</LinearRing>
				</outerBoundaryIs>
			</Polygon>
		</Placemark>
		<Placemark>
			<name>CF18</name>
			<styleUrl>#m_ylw-pushpin</styleUrl>
			<Polygon>
				<tessellate>1</tessellate>
				<outerBoundaryIs>
					<LinearRing>
						<coordinates>
							-45.40810859702992,-15.2504618186297,0 -45.40773898574309,-15.25071205359541,0 -45.40734319435654,-15.25000266570913,0 -45.40770956806791,-15.24977613801871,0 -45.40810859702992,-15.2504618186297,0 
						</coordinates>
					</LinearRing>
				</outerBoundaryIs>
			</Polygon>
		</Placemark>
		<Placemark>
			<name>CF19</name>
			<styleUrl>#m_ylw-pushpin</styleUrl>
			<Polygon>
				<tessellate>1</tessellate>
				<outerBoundaryIs>
					<LinearRing>
						<coordinates>
							-45.40773939525663,-15.25071185718192,0 -45.40737122746156,-15.25095722596594,0 -45.40694627604151,-15.25028077385286,0 -45.40733453366663,-15.25000192419278,0 -45.40773939525663,-15.25071185718192,0 
						</coordinates>
					</LinearRing>
				</outerBoundaryIs>
			</Polygon>
		</Placemark>
		<Placemark>
			<name>CF20</name>
			<styleUrl>#m_ylw-pushpin</styleUrl>
			<Polygon>
				<tessellate>1</tessellate>
				<outerBoundaryIs>
					<LinearRing>
						<coordinates>
							-45.40736537656215,-15.25096373994485,0 -45.40698665131722,-15.25121934423394,0 -45.40656948207512,-15.25054883638074,0 -45.40694519797567,-15.25028329241405,0 -45.40736537656215,-15.25096373994485,0 
						</coordinates>
					</LinearRing>
				</outerBoundaryIs>
			</Polygon>
		</Placemark>
		<atom:link rel="app" href="https://www.google.com/earth/about/versions/#earth-pro" title="Google Earth Pro 7.3.7.1155"></atom:link>
	</Folder>
</Document>
</kml>
