<kml xmlns="http://www.opengis.net/kml/2.2"><Document><Style><LineStyle><color>ff0000ff</color><width>3</width></LineStyle><PolyStyle><color>000000ff</color></PolyStyle></Style><Folder><name>Common layer</name><Placemark><Style><LineStyle><color>ff0000ff</color><width>3</width></LineStyle><PolyStyle><color>000000ff</color></PolyStyle></Style><ExtendedData><Data name="Name"><value>NSA2 - P25</value></Data><Data name="i-map-figure-type"><value>Polygon</value></Data><Data name="i-map-text-indent"><value>-16</value></Data><Data name="i-map-text-scale"><value>0.8</value></Data></ExtendedData><Polygon><outerBoundaryIs><LinearRing><coordinates>-45.37382098305941,-15.1992932756513 -45.37027101522185,-15.201411111594624 -45.368283641440165,-15.197309886196805 -45.37161663372458,-15.195044652042299 -45.37382098305941,-15.1992932756513</coordinates></LinearRing></outerBoundaryIs></Polygon></Placemark><Placemark><Style><LineStyle><color>ff0000ff</color><width>3</width></LineStyle><PolyStyle><color>000000ff</color></PolyStyle></Style><ExtendedData><Data name="Name"><value>NSA2 - P23</value></Data><Data name="i-map-figure-type"><value>Polygon</value></Data><Data name="i-map-text-indent"><value>-16</value></Data><Data name="i-map-text-scale"><value>0.8</value></Data></ExtendedData><Polygon><outerBoundaryIs><LinearRing><coordinates>-45.37024316894522,-15.201452862839162 -45.366517326903235,-15.203630129928243 -45.36455811292332,-15.19978804370514 -45.36826277951045,-15.197300673920381 -45.37024316894522,-15.201452862839162</coordinates></LinearRing></outerBoundaryIs></Polygon></Placemark><Placemark><Style><LineStyle><color>ff0000ff</color><width>3</width></LineStyle><PolyStyle><color>000000ff</color></PolyStyle></Style><ExtendedData><Data name="Name"><value>NSA - P22</value></Data><Data name="i-map-figure-type"><value>Polygon</value></Data><Data name="i-map-text-indent"><value>-16</value></Data><Data name="i-map-text-scale"><value>0.8</value></Data></ExtendedData><Polygon><outerBoundaryIs><LinearRing><coordinates>-45.36649453095781,-15.203669206492634 -45.36245188750299,-15.206080574559039 -45.364330205709294,-15.209664386828237 -45.36865781819384,-15.207505011674584 -45.36649453095781,-15.203669206492634</coordinates></LinearRing></outerBoundaryIs></Polygon></Placemark><Placemark><Style><LineStyle><color>ff0000ff</color><width>3</width></LineStyle><PolyStyle><color>000000ff</color></PolyStyle></Style><ExtendedData><Data name="Name"><value>NSA2 - P21</value></Data><Data name="i-map-figure-type"><value>Polygon</value></Data><Data name="i-map-text-indent"><value>-16</value></Data><Data name="i-map-text-scale"><value>0.8</value></Data></ExtendedData><Polygon><outerBoundaryIs><LinearRing><coordinates>-45.366489064092015,-15.203667537023051 -45.3624199167182,-15.206082511121593 -45.360651351032814,-15.20247386288689 -45.36453850021619,-15.199792061478746 -45.366489064092015,-15.203667537023051</coordinates></LinearRing></outerBoundaryIs></Polygon></Placemark><Placemark><Style><LineStyle><color>ff0000ff</color><width>3</width></LineStyle><PolyStyle><color>000000ff</color></PolyStyle></Style><ExtendedData><Data name="i-map-figure-type"><value>Polygon</value></Data><Data name="i-map-text-indent"><value>-16</value></Data><Data name="i-map-text-scale"><value>0.8</value></Data><Data name="undefined"><value>NSA2 - P07</value></Data></ExtendedData><Polygon><outerBoundaryIs><LinearRing><coordinates>-45.36816880784109,-15.197237827167228 -45.36449472802208,-15.199727201094177 -45.36173451440181,-15.196439193831893 -45.36578719197739,-15.193331246599328 -45.36816880784109,-15.197237827167228</coordinates></LinearRing></outerBoundaryIs></Polygon></Placemark><Placemark><Style><LineStyle><color>ff0000ff</color><width>3</width></LineStyle><PolyStyle><color>000000ff</color></PolyStyle></Style><ExtendedData><Data name="Name"><value>NSA2 - P24</value></Data><Data name="i-map-figure-type"><value>Polygon</value></Data><Data name="i-map-text-indent"><value>-16</value></Data><Data name="i-map-text-scale"><value>0.8</value></Data></ExtendedData><Polygon><outerBoundaryIs><LinearRing><coordinates>-45.37240385243103,-15.205523332795082 -45.36866446889412,-15.207490086478074 -45.366555966795566,-15.2036094319229 -45.370314493577894,-15.20139263172085 -45.37240385243103,-15.205523332795082</coordinates></LinearRing></outerBoundaryIs></Polygon></Placemark><Placemark><Style><LineStyle><color>ff0000ff</color><width>3</width></LineStyle><PolyStyle><color>000000ff</color></PolyStyle></Style><ExtendedData><Data name="Name"><value>NSA2 - P03</value></Data><Data name="i-map-figure-type"><value>Polygon</value></Data><Data name="i-map-text-indent"><value>-16</value></Data><Data name="i-map-text-scale"><value>0.8</value></Data></ExtendedData><Polygon><outerBoundaryIs><LinearRing><coordinates>-45.36062613883512,-15.20251781854094 -45.35806563965493,-15.199333351953399 -45.353765531168655,-15.20259342536788 -45.35623181361321,-15.205461679524646 -45.36062613883512,-15.20251781854094</coordinates></LinearRing></outerBoundaryIs></Polygon></Placemark><Placemark><Style><LineStyle><color>ff0000ff</color><width>3</width></LineStyle><PolyStyle><color>000000ff</color></PolyStyle></Style><ExtendedData><Data name="Name"><value>NSA2 - 18</value></Data><Data name="i-map-figure-type"><value>Polygon</value></Data><Data name="i-map-text-indent"><value>-16</value></Data><Data name="i-map-text-scale"><value>0.8</value></Data></ExtendedData><Polygon><outerBoundaryIs><LinearRing><coordinates>-45.36005961751439,-15.21189800503464 -45.35546224728273,-15.214277289475035 -45.35343716702093,-15.211417734754633 -45.35817072703995,-15.208638837738263 -45.36005961751439,-15.21189800503464</coordinates></LinearRing></outerBoundaryIs></Polygon></Placemark><Placemark><Style><LineStyle><color>ff0000ff</color><width>3</width></LineStyle><PolyStyle><color>000000ff</color></PolyStyle></Style><ExtendedData><Data name="i-map-figure-type"><value>Polygon</value></Data><Data name="i-map-text-indent"><value>-16</value></Data><Data name="i-map-text-scale"><value>0.8</value></Data><Data name="undefined"><value>NSA2 - P17</value></Data></ExtendedData><Polygon><outerBoundaryIs><LinearRing><coordinates>-45.35814156112597,-15.20867995958504 -45.353415001718275,-15.21142411517836 -45.35148973588134,-15.208602559408462 -45.3562840347832,-15.20544558615876 -45.35814156112597,-15.20867995958504</coordinates></LinearRing></outerBoundaryIs></Polygon></Placemark><Placemark><Style><LineStyle><color>ff0000ff</color><width>3</width></LineStyle><PolyStyle><color>000000ff</color></PolyStyle></Style><ExtendedData><Data name="Name"><value>NSA2 - P04</value></Data><Data name="i-map-figure-type"><value>Polygon</value></Data><Data name="i-map-text-indent"><value>-16</value></Data><Data name="i-map-text-scale"><value>0.8</value></Data></ExtendedData><Polygon><outerBoundaryIs><LinearRing><coordinates>-45.35804197280765,-15.19935053255665 -45.35376986749719,-15.202594065534313 -45.35141365253842,-15.199861585344465 -45.355643963697176,-15.1962057201914 -45.35804197280765,-15.19935053255665</coordinates></LinearRing></outerBoundaryIs></Polygon></Placemark><Placemark><Style><LineStyle><color>ff0000ff</color><width>3</width></LineStyle><PolyStyle><color>000000ff</color></PolyStyle></Style><ExtendedData><Data name="Name"><value>NSA2 - P01</value></Data><Data name="i-map-figure-type"><value>Polygon</value></Data><Data name="i-map-text-indent"><value>-16</value></Data><Data name="i-map-text-scale"><value>0.8</value></Data></ExtendedData><Polygon><outerBoundaryIs><LinearRing><coordinates>-45.35623859944959,-15.20547436708388 -45.35376898754144,-15.202609599489605 -45.34951867932972,-15.205795999022897 -45.35145075996717,-15.208645137548316 -45.35623859944959,-15.20547436708388</coordinates></LinearRing></outerBoundaryIs></Polygon></Placemark><Placemark><Style><LineStyle><color>ff0000ff</color><width>3</width></LineStyle><PolyStyle><color>000000ff</color></PolyStyle></Style><ExtendedData><Data name="Name"><value>NSA2 - P02</value></Data><Data name="i-map-figure-type"><value>Polygon</value></Data><Data name="i-map-text-indent"><value>-16</value></Data><Data name="i-map-text-scale"><value>0.8</value></Data></ExtendedData><Polygon><outerBoundaryIs><LinearRing><coordinates>-45.35375840182449,-15.202626366426756 -45.35098343025641,-15.204702314157544 -45.3497963800462,-15.202854872277157 -45.34951221170751,-15.202990825486566 -45.348887024212836,-15.202027897549641 -45.351401193728385,-15.199833676422145 -45.35375840182449,-15.202626366426756</coordinates></LinearRing></outerBoundaryIs></Polygon></Placemark><Placemark><Style><LineStyle><color>ff0000ff</color><width>3</width></LineStyle><PolyStyle><color>000000ff</color></PolyStyle></Style><ExtendedData><Data name="Name"><value>NSA2 - P06</value></Data><Data name="i-map-figure-type"><value>Polygon</value></Data><Data name="i-map-text-indent"><value>-16</value></Data><Data name="i-map-text-scale"><value>0.8</value></Data></ExtendedData><Polygon><outerBoundaryIs><LinearRing><coordinates>-45.36177482655431,-15.196557680405576 -45.3580468392865,-15.199382432493508 -45.355658856946185,-15.196246346990222 -45.35901904178734,-15.193334469122433 -45.36177482655431,-15.196557680405576</coordinates></LinearRing></outerBoundaryIs></Polygon></Placemark><Placemark><Style><LineStyle><color>ff0000ff</color><width>3</width></LineStyle><PolyStyle><color>000000ff</color></PolyStyle></Style><ExtendedData><Data name="i-map-figure-type"><value>Polygon</value></Data><Data name="i-map-text-indent"><value>-16</value></Data><Data name="i-map-text-scale"><value>0.8</value></Data><Data name="undefined"><value>NSA2 - P14</value></Data></ExtendedData><Polygon><outerBoundaryIs><LinearRing><coordinates>-45.375414912601684,-15.186043744881445 -45.37209789055014,-15.18860928228743 -45.369430835391114,-15.184387110567087 -45.372522925079856,-15.18174689984815 -45.375414912601684,-15.186043744881445</coordinates></LinearRing></outerBoundaryIs></Polygon></Placemark><Placemark><Style><LineStyle><color>ff0000ff</color><width>3</width></LineStyle><PolyStyle><color>000000ff</color></PolyStyle></Style><ExtendedData><Data name="Name"><value>NSA2 - P11</value></Data><Data name="i-map-figure-type"><value>Polygon</value></Data><Data name="i-map-text-indent"><value>-16</value></Data><Data name="i-map-text-scale"><value>0.8</value></Data></ExtendedData><Polygon><outerBoundaryIs><LinearRing><coordinates>-45.3746853841436,-15.192907396945628 -45.37160680346407,-15.195068478353718 -45.36909216167891,-15.190937114336108 -45.3721002695146,-15.188589537717206 -45.3746853841436,-15.192907396945628</coordinates></LinearRing></outerBoundaryIs></Polygon></Placemark><Placemark><Style><LineStyle><color>ff0000ff</color><width>3</width></LineStyle><PolyStyle><color>000000ff</color></PolyStyle></Style><ExtendedData><Data name="Name"><value>NSA2 - P12</value></Data><Data name="i-map-figure-type"><value>Polygon</value></Data><Data name="i-map-text-indent"><value>-16</value></Data><Data name="i-map-text-scale"><value>0.8</value></Data></ExtendedData><Polygon><outerBoundaryIs><LinearRing><coordinates>-45.37207497821713,-15.188642005993572 -45.36908410458662,-15.190924666980322 -45.366518237749226,-15.186904420387393 -45.369453209585316,-15.18440554594602 -45.37207497821713,-15.188642005993572</coordinates></LinearRing></outerBoundaryIs></Polygon></Placemark><Placemark><Style><LineStyle><color>ff0000ff</color><width>3</width></LineStyle><PolyStyle><color>000000ff</color></PolyStyle></Style><ExtendedData><Data name="Name"><value>NSA2 - P09</value></Data><Data name="i-map-figure-type"><value>Polygon</value></Data><Data name="i-map-text-indent"><value>-16</value></Data><Data name="i-map-text-scale"><value>0.8</value></Data></ExtendedData><Polygon><outerBoundaryIs><LinearRing><coordinates>-45.37159597750285,-15.19506144639898 -45.368276935568865,-15.197304577842658 -45.36586467198446,-15.193370806993073 -45.369098303330006,-15.190929881326753 -45.37159597750285,-15.19506144639898</coordinates></LinearRing></outerBoundaryIs></Polygon></Placemark><Placemark><Style><LineStyle><color>ff0000ff</color><width>3</width></LineStyle><PolyStyle><color>000000ff</color></PolyStyle></Style><ExtendedData><Data name="Name"><value>NSA2 - P10</value></Data><Data name="i-map-figure-type"><value>Polygon</value></Data><Data name="i-map-text-indent"><value>-16</value></Data><Data name="i-map-text-scale"><value>0.8</value></Data></ExtendedData><Polygon><outerBoundaryIs><LinearRing><coordinates>-45.369067448915,-15.190947330265217 -45.365837269657746,-15.19340172497921 -45.363432343831185,-15.189576505074939 -45.36653655260652,-15.186916368107873 -45.369067448915,-15.190947330265217</coordinates></LinearRing></outerBoundaryIs></Polygon></Placemark><Placemark><Style><LineStyle><color>ff0000ff</color><width>3</width></LineStyle><PolyStyle><color>000000ff</color></PolyStyle></Style><ExtendedData><Data name="Name"><value>NSA2 - P08</value></Data><Data name="i-map-figure-type"><value>Polygon</value></Data><Data name="i-map-text-indent"><value>-16</value></Data><Data name="i-map-text-scale"><value>0.8</value></Data></ExtendedData><Polygon><outerBoundaryIs><LinearRing><coordinates>-45.36581850802161,-15.193431369862623 -45.361798908444136,-15.196478411302024 -45.35903343556057,-15.193354436956056 -45.36344519625786,-15.189568862542671 -45.36581850802161,-15.193431369862623</coordinates></LinearRing></outerBoundaryIs></Polygon></Placemark><Placemark><Style><LineStyle><color>ff0000ff</color><width>3</width></LineStyle><PolyStyle><color>000000ff</color></PolyStyle></Style><ExtendedData><Data name="Name"><value>NSA2 - P31</value></Data><Data name="i-map-figure-type"><value>Polygon</value></Data><Data name="i-map-text-indent"><value>-16</value></Data><Data name="i-map-text-scale"><value>0.8</value></Data></ExtendedData><Polygon><outerBoundaryIs><LinearRing><coordinates>-45.384012188536296,-15.193083025360792 -45.38053074442049,-15.195213242331434 -45.378026926254144,-15.19064229224982 -45.381513026470685,-15.188311920343253 -45.384012188536296,-15.193083025360792</coordinates></LinearRing></outerBoundaryIs></Polygon></Placemark><Placemark><Style><LineStyle><color>ff0000ff</color><width>3</width></LineStyle><PolyStyle><color>000000ff</color></PolyStyle></Style><ExtendedData><Data name="i-map-figure-type"><value>Polygon</value></Data><Data name="i-map-text-indent"><value>-16</value></Data><Data name="i-map-text-scale"><value>0.8</value></Data><Data name="undefined"><value>NSA2 - P15</value></Data></ExtendedData><Polygon><outerBoundaryIs><LinearRing><coordinates>-45.38151419049586,-15.188345771094703 -45.37800907786802,-15.190660715243638 -45.37549889636402,-15.186004664293733 -45.37886828365565,-15.183524081277753 -45.38151419049586,-15.188345771094703</coordinates></LinearRing></outerBoundaryIs></Polygon></Placemark><Placemark><Style><LineStyle><color>ff0000ff</color><width>3</width></LineStyle><PolyStyle><color>000000ff</color></PolyStyle></Style><ExtendedData><Data name="Name"><value>NSA2 - P29</value></Data><Data name="i-map-figure-type"><value>Polygon</value></Data><Data name="i-map-text-indent"><value>-16</value></Data><Data name="i-map-text-scale"><value>0.8</value></Data></ExtendedData><Polygon><outerBoundaryIs><LinearRing><coordinates>-45.380550849280496,-15.195197046255771 -45.37719069101212,-15.197194765011218 -45.37467679749065,-15.192880897421887 -45.378023192608815,-15.19064397673985 -45.380550849280496,-15.195197046255771</coordinates></LinearRing></outerBoundaryIs></Polygon></Placemark><Placemark><Style><LineStyle><color>ff0000ff</color><width>3</width></LineStyle><PolyStyle><color>000000ff</color></PolyStyle></Style><ExtendedData><Data name="Name"><value>NSA2 - P16</value></Data><Data name="i-map-figure-type"><value>Polygon</value></Data><Data name="i-map-text-indent"><value>-16</value></Data><Data name="i-map-text-scale"><value>0.8</value></Data></ExtendedData><Polygon><outerBoundaryIs><LinearRing><coordinates>-45.3788514823655,-15.183587903773926 -45.37543669141761,-15.186024228713592 -45.372527176698675,-15.181740950922475 -45.37618168858192,-15.178585658376733 -45.3788514823655,-15.183587903773926</coordinates></LinearRing></outerBoundaryIs></Polygon></Placemark><Placemark><Style><LineStyle><color>ff0000ff</color><width>3</width></LineStyle><PolyStyle><color>000000ff</color></PolyStyle></Style><ExtendedData><Data name="i-map-figure-type"><value>Polygon</value></Data><Data name="i-map-text-indent"><value>-16</value></Data><Data name="i-map-text-scale"><value>0.8</value></Data><Data name="undefined"><value>NSA2 - P13</value></Data></ExtendedData><Polygon><outerBoundaryIs><LinearRing><coordinates>-45.378012290739846,-15.190687182044755 -45.374679376237246,-15.192881453675085 -45.37210951904225,-15.188589871400225 -45.375486356095045,-15.186029783625258 -45.378012290739846,-15.190687182044755</coordinates></LinearRing></outerBoundaryIs></Polygon></Placemark><Placemark><Style><LineStyle><color>ff0000ff</color><width>3</width></LineStyle><PolyStyle><color>000000ff</color></PolyStyle></Style><ExtendedData><Data name="Name"><value>NSA2 - P32</value></Data><Data name="i-map-figure-type"><value>Polygon</value></Data><Data name="i-map-text-indent"><value>-16</value></Data><Data name="i-map-text-scale"><value>0.8</value></Data></ExtendedData><Polygon><outerBoundaryIs><LinearRing><coordinates>-45.38666468742035,-15.197819813669028 -45.38405900000509,-15.19305476820655 -45.38056214451054,-15.19518033718019 -45.3831526716019,-15.199733382230605 -45.38666468742035,-15.197819813669028</coordinates></LinearRing></outerBoundaryIs></Polygon></Placemark><Placemark><Style><LineStyle><color>ff0000ff</color><width>3</width></LineStyle><PolyStyle><color>000000ff</color></PolyStyle></Style><ExtendedData><Data name="Name"><value>NSA2 - P30</value></Data><Data name="i-map-figure-type"><value>Polygon</value></Data><Data name="i-map-text-indent"><value>-16</value></Data><Data name="i-map-text-scale"><value>0.8</value></Data></ExtendedData><Polygon><outerBoundaryIs><LinearRing><coordinates>-45.38310340993678,-15.199769888012042 -45.379677236111284,-15.201614095093547 -45.37719888217228,-15.197195454419571 -45.38056030109662,-15.195190352368542 -45.38310340993678,-15.199769888012042</coordinates></LinearRing></outerBoundaryIs></Polygon></Placemark><Placemark><Style><LineStyle><color>ff0000ff</color><width>3</width></LineStyle><PolyStyle><color>000000ff</color></PolyStyle></Style><ExtendedData><Data name="Name"><value>NSA2 - P28</value></Data><Data name="i-map-figure-type"><value>Polygon</value></Data><Data name="i-map-text-indent"><value>-16</value></Data><Data name="i-map-text-scale"><value>0.8</value></Data></ExtendedData><Polygon><outerBoundaryIs><LinearRing><coordinates>-45.37962365639398,-15.201657223389049 -45.375923619412816,-15.203587432221937 -45.373834947158514,-15.199257754493317 -45.37719092572944,-15.197213756265356 -45.37962365639398,-15.201657223389049</coordinates></LinearRing></outerBoundaryIs></Polygon></Placemark><Placemark><Style><LineStyle><color>ff0000ff</color><width>3</width></LineStyle><PolyStyle><color>000000ff</color></PolyStyle></Style><ExtendedData><Data name="Name"><value>NSA2 - P27</value></Data><Data name="i-map-figure-type"><value>Polygon</value></Data><Data name="i-map-text-indent"><value>-16</value></Data><Data name="i-map-text-scale"><value>0.8</value></Data></ExtendedData><Polygon><outerBoundaryIs><LinearRing><coordinates>-45.37717191735626,-15.19722847805484 -45.37384391241412,-15.19923428946015 -45.371628813101104,-15.195035684972211 -45.37467766615941,-15.192882069734225 -45.37717191735626,-15.19722847805484</coordinates></LinearRing></outerBoundaryIs></Polygon></Placemark><Placemark><Style><LineStyle><color>ff0000ff</color><width>3</width></LineStyle><PolyStyle><color>000000ff</color></PolyStyle></Style><ExtendedData><Data name="Name"><value>NSA2 - P26</value></Data><Data name="i-map-figure-type"><value>Polygon</value></Data><Data name="i-map-text-indent"><value>-16</value></Data><Data name="i-map-text-scale"><value>0.8</value></Data></ExtendedData><Polygon><outerBoundaryIs><LinearRing><coordinates>-45.375905904411034,-15.203668844062506 -45.3723644196216,-15.205507762045755 -45.37029712224453,-15.201396775375798 -45.37385772853282,-15.199260811806852 -45.375905904411034,-15.203668844062506</coordinates></LinearRing></outerBoundaryIs></Polygon></Placemark><Placemark><Style><LineStyle><color>ff0000ff</color><width>3</width></LineStyle><PolyStyle><color>000000ff</color></PolyStyle></Style><ExtendedData><Data name="Name"><value>NSA2 - P20</value></Data><Data name="i-map-figure-type"><value>Polygon</value></Data><Data name="i-map-text-indent"><value>-16</value></Data><Data name="i-map-text-scale"><value>0.8</value></Data></ExtendedData><Polygon><outerBoundaryIs><LinearRing><coordinates>-45.36433663848907,-15.209699476691199 -45.36010574927773,-15.211865667816042 -45.35817893641086,-15.208609633290479 -45.362480462970325,-15.206085029457967 -45.36433663848907,-15.209699476691199</coordinates></LinearRing></outerBoundaryIs></Polygon></Placemark><Placemark><Style><LineStyle><color>ff0000ff</color><width>3</width></LineStyle><PolyStyle><color>000000ff</color></PolyStyle></Style><ExtendedData><Data name="Name"><value>NSA2 - P19</value></Data><Data name="i-map-figure-type"><value>Polygon</value></Data><Data name="i-map-text-indent"><value>-16</value></Data><Data name="i-map-text-scale"><value>0.8</value></Data></ExtendedData><Polygon><outerBoundaryIs><LinearRing><coordinates>-45.362430307793524,-15.206130396790485 -45.35817744214069,-15.20864339440989 -45.356278725036624,-15.20542850662244 -45.36066658697353,-15.20246534139666 -45.362430307793524,-15.206130396790485</coordinates></LinearRing></outerBoundaryIs></Polygon></Placemark><Placemark><Style><LineStyle><color>ff0000ff</color><width>3</width></LineStyle><PolyStyle><color>000000ff</color></PolyStyle></Style><ExtendedData><Data name="Name"><value>NSA2 - P05</value></Data><Data name="i-map-figure-type"><value>Polygon</value></Data><Data name="i-map-text-indent"><value>-16</value></Data><Data name="i-map-text-scale"><value>0.8</value></Data></ExtendedData><Polygon><outerBoundaryIs><LinearRing><coordinates>-45.36449151285071,-15.199860911658817 -45.36063702646043,-15.202493896634437 -45.35807839486629,-15.199358525201774 -45.361763339216054,-15.196487760650257 -45.36449151285071,-15.199860911658817</coordinates></LinearRing></outerBoundaryIs></Polygon></Placemark></Folder></Document></kml>